{
  "type": "FeatureCollection",
  "features": [
    {
      "type": "Feature",
      "properties": {
        "norad_id": 22675,
        "name": "COSMOS 2251",
        "group": "cosmos-2251-debris",
        "lat": -62.89218754059047,
        "lon": 144.01371155440586,
        "alt_km": 796.7944219732026,
        "timestamp": "2025-12-26T21:25:53.401811+00:00",
        "meta_object_name": "COSMOS 2251",
        "meta_object_id": "1993-036A",
        "meta_epoch": "2025-12-26T13:34:38.150112",
        "meta_mean_motion": 14.33209033,
        "meta_eccentricity": 0.00245242,
        "meta_inclination": 74.0401,
        "meta_ra_of_asc_node": 290.6218,
        "meta_arg_of_pericenter": 9.134,
        "meta_mean_anomaly": 351.0252,
        "meta_ephemeris_type": 0,
        "meta_classification_type": "U",
        "meta_norad_cat_id": 22675,
        "meta_element_set_no": 999,
        "meta_rev_at_epoch": 69971,
        "meta_bstar": 6.38674e-05,
        "meta_mean_motion_dot": 1.5e-06,
        "meta_mean_motion_ddot": 0,
        "tle_line1": "1 22675U 93036A   25360.56571933  .00000150  00000+0  63867-4 0  9997",
        "tle_line2": "2 22675  74.0401 290.6218 0024524   9.1340 351.0252 14.33209033699710"
      },
      "geometry": {
        "type": "Point",
        "coordinates": [
          144.01371155440586,
          -62.89218754059047
        ]
      }
    },
    {
      "type": "Feature",
      "properties": {
        "norad_id": 33757,
        "name": "COSMOS 2251 DEB",
        "group": "cosmos-2251-debris",
        "lat": -68.17918093511213,
        "lon": 163.4029322897769,
        "alt_km": 783.4064960764654,
        "timestamp": "2025-12-26T21:25:53.401834+00:00",
        "meta_object_name": "COSMOS 2251 DEB",
        "meta_object_id": "1993-036E",
        "meta_epoch": "2025-12-26T14:24:04.127328",
        "meta_mean_motion": 14.32584595,
        "meta_eccentricity": 0.00156852,
        "meta_inclination": 74.0376,
        "meta_ra_of_asc_node": 298.3068,
        "meta_arg_of_pericenter": 309.5576,
        "meta_mean_anomaly": 235.3584,
        "meta_ephemeris_type": 0,
        "meta_classification_type": "U",
        "meta_norad_cat_id": 33757,
        "meta_element_set_no": 999,
        "meta_rev_at_epoch": 88194,
        "meta_bstar": 5.3503889e-05,
        "meta_mean_motion_dot": 1.19e-06,
        "meta_mean_motion_ddot": 0,
        "tle_line1": "1 33757U 93036E   25360.60004777  .00000119  00000+0  53504-4 0  9994",
        "tle_line2": "2 33757  74.0376 298.3068 0015685 309.5576 235.3584 14.32584595881946"
      },
      "geometry": {
        "type": "Point",
        "coordinates": [
          163.4029322897769,
          -68.17918093511213
        ]
      }
    },
    {
      "type": "Feature",
      "properties": {
        "norad_id": 33758,
        "name": "COSMOS 2251 DEB",
        "group": "cosmos-2251-debris",
        "lat": 74.01469280666872,
        "lon": -80.59698098537797,
        "alt_km": 724.3988370752286,
        "timestamp": "2025-12-26T21:25:53.401849+00:00",
        "meta_object_name": "COSMOS 2251 DEB",
        "meta_object_id": "1993-036F",
        "meta_epoch": "2025-12-26T14:41:45.344832",
        "meta_mean_motion": 14.51675293,
        "meta_eccentricity": 0.00170917,
        "meta_inclination": 74.0271,
        "meta_ra_of_asc_node": 188.8989,
        "meta_arg_of_pericenter": 254.6373,
        "meta_mean_anomaly": 169.6191,
        "meta_ephemeris_type": 0,
        "meta_classification_type": "U",
        "meta_norad_cat_id": 33758,
        "meta_element_set_no": 999,
        "meta_rev_at_epoch": 88506,
        "meta_bstar": 0.00084259369,
        "meta_mean_motion_dot": 3.36e-05,
        "meta_mean_motion_ddot": 0,
        "tle_line1": "1 33758U 93036F   25360.61233038  .00003360  00000+0  84259-3 0  9991",
        "tle_line2": "2 33758  74.0271 188.8989 0017091 254.6373 169.6191 14.51675293885061"
      },
      "geometry": {
        "type": "Point",
        "coordinates": [
          -80.59698098537797,
          74.01469280666872
        ]
      }
    },
    {
      "type": "Feature",
      "properties": {
        "norad_id": 33760,
        "name": "COSMOS 2251 DEB",
        "group": "cosmos-2251-debris",
        "lat": -56.7041671630465,
        "lon": -130.36437714990606,
        "alt_km": 770.2595085359462,
        "timestamp": "2025-12-26T21:25:53.401861+00:00",
        "meta_object_name": "COSMOS 2251 DEB",
        "meta_object_id": "1993-036H",
        "meta_epoch": "2025-12-26T04:01:23.988864",
        "meta_mean_motion": 14.3568128,
        "meta_eccentricity": 0.00204802,
        "meta_inclination": 74.0318,
        "meta_ra_of_asc_node": 256.813,
        "meta_arg_of_pericenter": 352.0528,
        "meta_mean_anomaly": 160.4164,
        "meta_ephemeris_type": 0,
        "meta_classification_type": "U",
        "meta_norad_cat_id": 33760,
        "meta_element_set_no": 999,
        "meta_rev_at_epoch": 88317,
        "meta_bstar": 0.00010125434,
        "meta_mean_motion_dot": 2.67e-06,
        "meta_mean_motion_ddot": 0,
        "tle_line1": "1 33760U 93036H   25360.16763876  .00000267  00000+0  10125-3 0  9996",
        "tle_line2": "2 33760  74.0318 256.8130 0020480 352.0528 160.4164 14.35681280883175"
      },
      "geometry": {
        "type": "Point",
        "coordinates": [
          -130.36437714990606,
          -56.7041671630465
        ]
      }
    },
    {
      "type": "Feature",
      "properties": {
        "norad_id": 33761,
        "name": "COSMOS 2251 DEB",
        "group": "cosmos-2251-debris",
        "lat": -37.27585130075753,
        "lon": 58.48935701715922,
        "alt_km": 754.5533184820488,
        "timestamp": "2025-12-26T21:25:53.401872+00:00",
        "meta_object_name": "COSMOS 2251 DEB",
        "meta_object_id": "1993-036J",
        "meta_epoch": "2025-12-25T18:07:22.971936",
        "meta_mean_motion": 14.42579332,
        "meta_eccentricity": 0.00233359,
        "meta_inclination": 74.0347,
        "meta_ra_of_asc_node": 228.0146,
        "meta_arg_of_pericenter": 306.4885,
        "meta_mean_anomaly": 125.9248,
        "meta_ephemeris_type": 0,
        "meta_classification_type": "U",
        "meta_norad_cat_id": 33761,
        "meta_element_set_no": 999,
        "meta_rev_at_epoch": 88422,
        "meta_bstar": 0.00036902596,
        "meta_mean_motion_dot": 1.202e-05,
        "meta_mean_motion_ddot": 0,
        "tle_line1": "1 33761U 93036J   25359.75512699  .00001202  00000+0  36903-3 0  9997",
        "tle_line2": "2 33761  74.0347 228.0146 0023335 306.4885 125.9248 14.42579332884225"
      },
      "geometry": {
        "type": "Point",
        "coordinates": [
          58.48935701715922,
          -37.27585130075753
        ]
      }
    },
    {
      "type": "Feature",
      "properties": {
        "norad_id": 33762,
        "name": "COSMOS 2251 DEB",
        "group": "cosmos-2251-debris",
        "lat": 42.324330819740666,
        "lon": 89.04728968995971,
        "alt_km": 785.5947560428958,
        "timestamp": "2025-12-26T21:25:53.401884+00:00",
        "meta_object_name": "COSMOS 2251 DEB",
        "meta_object_id": "1993-036K",
        "meta_epoch": "2025-12-26T06:26:49.691616",
        "meta_mean_motion": 14.33667965,
        "meta_eccentricity": 0.00155421,
        "meta_inclination": 74.0422,
        "meta_ra_of_asc_node": 285.2929,
        "meta_arg_of_pericenter": 343.6512,
        "meta_mean_anomaly": 170.6399,
        "meta_ephemeris_type": 0,
        "meta_classification_type": "U",
        "meta_norad_cat_id": 33762,
        "meta_element_set_no": 999,
        "meta_rev_at_epoch": 88241,
        "meta_bstar": 6.0132041e-05,
        "meta_mean_motion_dot": 1.41e-06,
        "meta_mean_motion_ddot": 0,
        "tle_line1": "1 33762U 93036K   25360.26863069  .00000141  00000+0  60132-4 0  9999",
        "tle_line2": "2 33762  74.0422 285.2929 0015542 343.6512 170.6399 14.33667965882418"
      },
      "geometry": {
        "type": "Point",
        "coordinates": [
          89.04728968995971,
          42.324330819740666
        ]
      }
    },
    {
      "type": "Feature",
      "properties": {
        "norad_id": 33764,
        "name": "COSMOS 2251 DEB",
        "group": "cosmos-2251-debris",
        "lat": -32.108393535704195,
        "lon": 76.87295735267774,
        "alt_km": 749.1466437209519,
        "timestamp": "2025-12-26T21:25:53.401895+00:00",
        "meta_object_name": "COSMOS 2251 DEB",
        "meta_object_id": "1993-036M",
        "meta_epoch": "2025-12-26T11:14:24.468000",
        "meta_mean_motion": 14.39536986,
        "meta_eccentricity": 0.00233115,
        "meta_inclination": 74.0328,
        "meta_ra_of_asc_node": 247.3068,
        "meta_arg_of_pericenter": 210.3416,
        "meta_mean_anomaly": 323.3618,
        "meta_ephemeris_type": 0,
        "meta_classification_type": "U",
        "meta_norad_cat_id": 33764,
        "meta_element_set_no": 999,
        "meta_rev_at_epoch": 88354,
        "meta_bstar": 0.00028676904,
        "meta_mean_motion_dot": 8.71e-06,
        "meta_mean_motion_ddot": 0,
        "tle_line1": "1 33764U 93036M   25360.46833875  .00000871  00000+0  28677-3 0  9992",
        "tle_line2": "2 33764  74.0328 247.3068 0023311 210.3416 323.3618 14.39536986883544"
      },
      "geometry": {
        "type": "Point",
        "coordinates": [
          76.87295735267774,
          -32.108393535704195
        ]
      }
    }
  ]
}